[{"CCSDS_OMM_VERS":"2.0","COMMENT":"GENERATED VIA SPACE-TRACK.ORG API","CREATION_DATE":"2021-05-04T14:56:11","ORIGINATOR":"18 SPCS","OBJECT_NAME":"ONEWEB-0220","OBJECT_ID":"2021-031Y","CENTER_NAME":"EARTH","REF_FRAME":"TEME","TIME_SYSTEM":"UTC","MEAN_ELEMENT_THEORY":"SGP4","EPOCH":"2021-05-04T12:00:00.999648","MEAN_MOTION":"15.42260735","ECCENTRICITY":"0.00090260","INCLINATION":"87.3987","RA_OF_ASC_NODE":"310.1178","ARG_OF_PERICENTER":"220.1339","MEAN_ANOMALY":"227.8421","EPHEMERIS_TYPE":"0","CLASSIFICATION_TYPE":"U","NORAD_CAT_ID":"48232","ELEMENT_SET_NO":"999","REV_AT_EPOCH":"131","BSTAR":"0.00045769000000","MEAN_MOTION_DOT":"0.00019749","MEAN_MOTION_DDOT":"0.0000000000000","SEMIMAJOR_AXIS":"6817.576","PERIOD":"93.369","APOAPSIS":"445.594","PERIAPSIS":"433.287","OBJECT_TYPE":"PAYLOAD","RCS_SIZE":"MEDIUM","COUNTRY_CODE":"UK","LAUNCH_DATE":"2021-04-25","SITE":"VOSTO","DECAY_DATE":null,"FILE":"3030525","GP_ID":"176607109","TLE_LINE0":"0 ONEWEB-0220","TLE_LINE1":"1 48232U 21031Y   21124.50001157  .00019749  00000-0  45769-3 0  9999","TLE_LINE2":"2 48232  87.3987 310.1178 0009026 220.1339 227.8421 15.42260735  1317"},{"CCSDS_OMM_VERS":"2.0","COMMENT":"GENERATED VIA SPACE-TRACK.ORG API","CREATION_DATE":"2021-05-04T18:42:36","ORIGINATOR":"18 SPCS","OBJECT_NAME":"ONEWEB-0220","OBJECT_ID":"2021-031Y","CENTER_NAME":"EARTH","REF_FRAME":"TEME","TIME_SYSTEM":"UTC","MEAN_ELEMENT_THEORY":"SGP4","EPOCH":"2021-05-04T14:00:01.000224","MEAN_MOTION":"15.42292830","ECCENTRICITY":"0.00091020","INCLINATION":"87.3987","RA_OF_ASC_NODE":"310.0876","ARG_OF_PERICENTER":"220.0231","MEAN_ANOMALY":"330.2980","EPHEMERIS_TYPE":"0","CLASSIFICATION_TYPE":"U","NORAD_CAT_ID":"48232","ELEMENT_SET_NO":"999","REV_AT_EPOCH":"177","BSTAR":"-0.00111080000000","MEAN_MOTION_DOT":"-0.00047412","MEAN_MOTION_DDOT":"0.0000000000000","SEMIMAJOR_AXIS":"6817.481","PERIOD":"93.367","APOAPSIS":"445.551","PERIAPSIS":"433.141","OBJECT_TYPE":"PAYLOAD","RCS_SIZE":"MEDIUM","COUNTRY_CODE":"UK","LAUNCH_DATE":"2021-04-25","SITE":"VOSTO","DECAY_DATE":null,"FILE":"3030686","GP_ID":"176633793","TLE_LINE0":"0 ONEWEB-0220","TLE_LINE1":"1 48232U 21031Y   21124.58334491 -.00047412  00000-0 -11108-2 0  9996","TLE_LINE2":"2 48232  87.3987 310.0876 0009102 220.0231 330.2980 15.42292830  1776"},{"CCSDS_OMM_VERS":"2.0","COMMENT":"GENERATED VIA SPACE-TRACK.ORG API","CREATION_DATE":"2021-05-04T22:16:11","ORIGINATOR":"18 SPCS","OBJECT_NAME":"ONEWEB-0220","OBJECT_ID":"2021-031Y","CENTER_NAME":"EARTH","REF_FRAME":"TEME","TIME_SYSTEM":"UTC","MEAN_ELEMENT_THEORY":"SGP4","EPOCH":"2021-05-04T16:00:00.999936","MEAN_MOTION":"15.42292677","ECCENTRICITY":"0.00091310","INCLINATION":"87.3986","RA_OF_ASC_NODE":"310.0572","ARG_OF_PERICENTER":"220.0117","MEAN_ANOMALY":"72.6675","EPHEMERIS_TYPE":"0","CLASSIFICATION_TYPE":"U","NORAD_CAT_ID":"48232","ELEMENT_SET_NO":"999","REV_AT_EPOCH":"133","BSTAR":"-0.00140740000000","MEAN_MOTION_DOT":"-0.00059989","MEAN_MOTION_DDOT":"0.0000000000000","SEMIMAJOR_AXIS":"6817.482","PERIOD":"93.367","APOAPSIS":"445.572","PERIAPSIS":"433.122","OBJECT_TYPE":"PAYLOAD","RCS_SIZE":"MEDIUM","COUNTRY_CODE":"UK","LAUNCH_DATE":"2021-04-25","SITE":"VOSTO","DECAY_DATE":null,"FILE":"3030707","GP_ID":"176634316","TLE_LINE0":"0 ONEWEB-0220","TLE_LINE1":"1 48232U 21031Y   21124.66667824 -.00059989  00000-0 -14074-2 0  9991","TLE_LINE2":"2 48232  87.3986 310.0572 0009131 220.0117  72.6675 15.42292677  1332"},{"CCSDS_OMM_VERS":"2.0","COMMENT":"GENERATED VIA SPACE-TRACK.ORG API","CREATION_DATE":"2021-05-05T02:49:35","ORIGINATOR":"18 SPCS","OBJECT_NAME":"ONEWEB-0220","OBJECT_ID":"2021-031Y","CENTER_NAME":"EARTH","REF_FRAME":"TEME","TIME_SYSTEM":"UTC","MEAN_ELEMENT_THEORY":"SGP4","EPOCH":"2021-05-04T22:00:00.999936","MEAN_MOTION":"15.42233370","ECCENTRICITY":"0.00090940","INCLINATION":"87.3986","RA_OF_ASC_NODE":"309.9674","ARG_OF_PERICENTER":"218.7474","MEAN_ANOMALY":"21.0087","EPHEMERIS_TYPE":"0","CLASSIFICATION_TYPE":"U","NORAD_CAT_ID":"48232","ELEMENT_SET_NO":"999","REV_AT_EPOCH":"176","BSTAR":"0.00166240000000","MEAN_MOTION_DOT":"0.00072020","MEAN_MOTION_DDOT":"0.0000000000000","SEMIMAJOR_AXIS":"6817.656","PERIOD":"93.371","APOAPSIS":"445.721","PERIAPSIS":"433.321","OBJECT_TYPE":"PAYLOAD","RCS_SIZE":"MEDIUM","COUNTRY_CODE":"UK","LAUNCH_DATE":"2021-04-25","SITE":"VOSTO","DECAY_DATE":null,"FILE":"3030758","GP_ID":"176657896","TLE_LINE0":"0 ONEWEB-0220","TLE_LINE1":"1 48232U 21031Y   21124.91667824  .00072020  00000-0  16624-2 0  9991","TLE_LINE2":"2 48232  87.3986 309.9674 0009094 218.7474  21.0087 15.42233370  1767"},{"CCSDS_OMM_VERS":"2.0","COMMENT":"GENERATED VIA SPACE-TRACK.ORG API","CREATION_DATE":"2021-05-05T06:36:11","ORIGINATOR":"18 SPCS","OBJECT_NAME":"ONEWEB-0220","OBJECT_ID":"2021-031Y","CENTER_NAME":"EARTH","REF_FRAME":"TEME","TIME_SYSTEM":"UTC","MEAN_ELEMENT_THEORY":"SGP4","EPOCH":"2021-05-05T04:00:07.000416","MEAN_MOTION":"15.42294997","ECCENTRICITY":"0.00091150","INCLINATION":"87.3985","RA_OF_ASC_NODE":"309.8792","ARG_OF_PERICENTER":"216.8171","MEAN_ANOMALY":"330.3685","EPHEMERIS_TYPE":"0","CLASSIFICATION_TYPE":"U","NORAD_CAT_ID":"48232","ELEMENT_SET_NO":"999","REV_AT_EPOCH":"141","BSTAR":"-0.00135190000000","MEAN_MOTION_DOT":"-0.00057643","MEAN_MOTION_DDOT":"0.0000000000000","SEMIMAJOR_AXIS":"6817.475","PERIOD":"93.367","APOAPSIS":"445.554","PERIAPSIS":"433.126","OBJECT_TYPE":"PAYLOAD","RCS_SIZE":"MEDIUM","COUNTRY_CODE":"UK","LAUNCH_DATE":"2021-04-25","SITE":"VOSTO","DECAY_DATE":null,"FILE":"3030846","GP_ID":"176659878","TLE_LINE0":"0 ONEWEB-0220","TLE_LINE1":"1 48232U 21031Y   21125.16674769 -.00057643  00000-0 -13519-2 0  9991","TLE_LINE2":"2 48232  87.3985 309.8792 0009115 216.8171 330.3685 15.42294997  1417"},{"CCSDS_OMM_VERS":"2.0","COMMENT":"GENERATED VIA SPACE-TRACK.ORG API","CREATION_DATE":"2021-05-05T20:27:00","ORIGINATOR":"18 SPCS","OBJECT_NAME":"ONEWEB-0220","OBJECT_ID":"2021-031Y","CENTER_NAME":"EARTH","REF_FRAME":"TEME","TIME_SYSTEM":"UTC","MEAN_ELEMENT_THEORY":"SGP4","EPOCH":"2021-05-05T12:00:00.999648","MEAN_MOTION":"15.42270341","ECCENTRICITY":"0.00093000","INCLINATION":"87.3985","RA_OF_ASC_NODE":"309.7603","ARG_OF_PERICENTER":"215.2609","MEAN_ANOMALY":"20.9616","EPHEMERIS_TYPE":"0","CLASSIFICATION_TYPE":"U","NORAD_CAT_ID":"48232","ELEMENT_SET_NO":"999","REV_AT_EPOCH":"181","BSTAR":"0.00053269000000","MEAN_MOTION_DOT":"0.00022996","MEAN_MOTION_DDOT":"0.0000000000000","SEMIMAJOR_AXIS":"6817.547","PERIOD":"93.369","APOAPSIS":"445.753","PERIAPSIS":"433.072","OBJECT_TYPE":"PAYLOAD","RCS_SIZE":"MEDIUM","COUNTRY_CODE":"UK","LAUNCH_DATE":"2021-04-25","SITE":"VOSTO","DECAY_DATE":null,"FILE":"3031336","GP_ID":"176692991","TLE_LINE0":"0 ONEWEB-0220","TLE_LINE1":"1 48232U 21031Y   21125.50001157  .00022996  00000-0  53269-3 0  9992","TLE_LINE2":"2 48232  87.3985 309.7603 0009300 215.2609  20.9616 15.42270341  1819"},{"CCSDS_OMM_VERS":"2.0","COMMENT":"GENERATED VIA SPACE-TRACK.ORG API","CREATION_DATE":"2021-05-05T14:36:12","ORIGINATOR":"18 SPCS","OBJECT_NAME":"ONEWEB-0220","OBJECT_ID":"2021-031Y","CENTER_NAME":"EARTH","REF_FRAME":"TEME","TIME_SYSTEM":"UTC","MEAN_ELEMENT_THEORY":"SGP4","EPOCH":"2021-05-05T12:00:00.999648","MEAN_MOTION":"15.42270341","ECCENTRICITY":"0.00093000","INCLINATION":"87.3985","RA_OF_ASC_NODE":"309.7603","ARG_OF_PERICENTER":"215.2609","MEAN_ANOMALY":"20.9616","EPHEMERIS_TYPE":"0","CLASSIFICATION_TYPE":"U","NORAD_CAT_ID":"48232","ELEMENT_SET_NO":"999","REV_AT_EPOCH":"146","BSTAR":"0.00053269000000","MEAN_MOTION_DOT":"0.00022996","MEAN_MOTION_DDOT":"0.0000000000000","SEMIMAJOR_AXIS":"6817.547","PERIOD":"93.369","APOAPSIS":"445.753","PERIAPSIS":"433.072","OBJECT_TYPE":"PAYLOAD","RCS_SIZE":"MEDIUM","COUNTRY_CODE":"UK","LAUNCH_DATE":"2021-04-25","SITE":"VOSTO","DECAY_DATE":null,"FILE":"3031090","GP_ID":"176664504","TLE_LINE0":"0 ONEWEB-0220","TLE_LINE1":"1 48232U 21031Y   21125.50001157  .00022996  00000-0  53269-3 0  9992","TLE_LINE2":"2 48232  87.3985 309.7603 0009300 215.2609  20.9616 15.42270341  1460"},{"CCSDS_OMM_VERS":"2.0","COMMENT":"GENERATED VIA SPACE-TRACK.ORG API","CREATION_DATE":"2021-05-05T22:16:14","ORIGINATOR":"18 SPCS","OBJECT_NAME":"ONEWEB-0220","OBJECT_ID":"2021-031Y","CENTER_NAME":"EARTH","REF_FRAME":"TEME","TIME_SYSTEM":"UTC","MEAN_ELEMENT_THEORY":"SGP4","EPOCH":"2021-05-05T20:00:01.000224","MEAN_MOTION":"15.42240897","ECCENTRICITY":"0.00092460","INCLINATION":"87.3986","RA_OF_ASC_NODE":"309.6397","ARG_OF_PERICENTER":"214.1536","MEAN_ANOMALY":"71.5012","EPHEMERIS_TYPE":"0","CLASSIFICATION_TYPE":"U","NORAD_CAT_ID":"48232","ELEMENT_SET_NO":"999","REV_AT_EPOCH":"151","BSTAR":"0.00109880000000","MEAN_MOTION_DOT":"0.00047485","MEAN_MOTION_DDOT":"0.0000000000000","SEMIMAJOR_AXIS":"6817.634","PERIOD":"93.371","APOAPSIS":"445.803","PERIAPSIS":"433.196","OBJECT_TYPE":"PAYLOAD","RCS_SIZE":"MEDIUM","COUNTRY_CODE":"UK","LAUNCH_DATE":"2021-04-25","SITE":"VOSTO","DECAY_DATE":null,"FILE":"3031430","GP_ID":"176693996","TLE_LINE0":"0 ONEWEB-0220","TLE_LINE1":"1 48232U 21031Y   21125.83334491  .00047485  00000-0  10988-2 0  9998","TLE_LINE2":"2 48232  87.3986 309.6397 0009246 214.1536  71.5012 15.42240897  1517"}]